CTC2_L_00644001-01
1 10000U 23666QP  26075.70050926  .00000000  00000+0  00000-0 0  9992
2 10000  70.0000   0.0000 0000000   0.0000   0.0000  3.95927803    17
CTC2_L_00644001-02
1 10001U 24517BO  26075.70050926  .00000000  00000+0  00000-0 0  9999
2 10001  70.0000   0.0000 0000000   0.0000  36.0000  3.95927803    17
CTC2_L_00644001-03
1 10002U 24965RV  26075.70050926  .00000000  00000+0  00000-0 0  9997
2 10002  70.0000   0.0000 0000000   0.0000  72.0000  3.95927803    18
CTC2_L_00644001-04
1 10003U 26527DI  26075.70050926  .00000000  00000+0  00000-0 0  9994
2 10003  70.0000   0.0000 0000000   0.0000 108.0000  3.95927803    19
CTC2_L_00644001-05
1 10004U 26310ST  26075.70050926  .00000000  00000+0  00000-0 0  9995
2 10004  70.0000   0.0000 0000000   0.0000 144.0000  3.95927803    10
CTC2_L_00644001-06
1 10005U 22351LP  26075.70050926  .00000000  00000+0  00000-0 0  9997
2 10005  70.0000   0.0000 0000000   0.0000 180.0000  3.95927803    11
CTC2_L_00644001-07
1 10006U 23142JI  26075.70050926  .00000000  00000+0  00000-0 0  9997
2 10006  70.0000   0.0000 0000000   0.0000 216.0000  3.95927803    12
CTC2_L_00644001-08
1 10007U 26292DZ  26075.70050926  .00000000  00000+0  00000-0 0  9997
2 10007  70.0000   0.0000 0000000   0.0000 252.0000  3.95927803    13
CTC2_L_00644001-09
1 10008U 25383DK  26075.70050926  .00000000  00000+0  00000-0 0  9998
2 10008  70.0000   0.0000 0000000   0.0000 288.0000  3.95927803    13
CTC2_L_00644001-10
1 10009U 22020NI  26075.70050926  .00000000  00000+0  00000-0 0  9994
2 10009  70.0000   0.0000 0000000   0.0000 324.0000  3.95927803    15
CTC2_L_00644002-01
1 10010U 23261FH  26075.70050926  .00000000  00000+0  00000-0 0  9994
2 10010  70.0000  30.0000 0000000   0.0000  12.0000  3.95927803    14
CTC2_L_00644002-02
1 10011U 24732NT  26075.70050926  .00000000  00000+0  00000-0 0  9999
2 10011  70.0000  30.0000 0000000   0.0000  48.0000  3.95927803    14
CTC2_L_00644002-03
1 10012U 25567QG  26075.70050926  .00000000  00000+0  00000-0 0  9997
2 10012  70.0000  30.0000 0000000   0.0000  84.0000  3.95927803    15
CTC2_L_00644002-04
1 10013U 24166NH  26075.70050926  .00000000  00000+0  00000-0 0  9992
2 10013  70.0000  30.0000 0000000   0.0000 120.0000  3.95927803    17
CTC2_L_00644002-05
1 10014U 26514YW  26075.70050926  .00000000  00000+0  00000-0 0  9992
2 10014  70.0000  30.0000 0000000   0.0000 156.0000  3.95927803    17
CTC2_L_00644002-06
1 10015U 22672LP  26075.70050926  .00000000  00000+0  00000-0 0  9994
2 10015  70.0000  30.0000 0000000   0.0000 192.0000  3.95927803    18
CTC2_L_00644002-07
1 10016U 22229DT  26075.70050926  .00000000  00000+0  00000-0 0  9993
2 10016  70.0000  30.0000 0000000   0.0000 228.0000  3.95927803    19
CTC2_L_00644002-08
1 10017U 26890QL  26075.70050926  .00000000  00000+0  00000-0 0  9992
2 10017  70.0000  30.0000 0000000   0.0000 264.0000  3.95927803    10
CTC2_L_00644002-09
1 10018U 22167KG  26075.70050926  .00000000  00000+0  00000-0 0  9996
2 10018  70.0000  30.0000 0000000   0.0000 300.0000  3.95927803    12
CTC2_L_00644002-10
1 10019U 23826IX  26075.70050926  .00000000  00000+0  00000-0 0  9990
2 10019  70.0000  30.0000 0000000   0.0000 336.0000  3.95927803    12
CTC2_L_00644003-01
1 10020U 23975FK  26075.70050926  .00000000  00000+0  00000-0 0  9997
2 10020  70.0000  60.0000 0000000   0.0000  24.0000  3.95927803    11
CTC2_L_00644003-02
1 10021U 25055OD  26075.70050926  .00000000  00000+0  00000-0 0  9999
2 10021  70.0000  60.0000 0000000   0.0000  60.0000  3.95927803    12
CTC2_L_00644003-03
1 10022U 25129XN  26075.70050926  .00000000  00000+0  00000-0 0  9992
2 10022  70.0000  60.0000 0000000   0.0000  96.0000  3.95927803    12
CTC2_L_00644003-04
1 10023U 23413RW  26075.70050926  .00000000  00000+0  00000-0 0  9997
2 10023  70.0000  60.0000 0000000   0.0000 132.0000  3.95927803    14
CTC2_L_00644003-05
1 10024U 22703AA  26075.70050926  .00000000  00000+0  00000-0 0  9999
2 10024  70.0000  60.0000 0000000   0.0000 168.0000  3.95927803    14
CTC2_L_00644003-06
1 10025U 24243QR  26075.70050926  .00000000  00000+0  00000-0 0  9991
2 10025  70.0000  60.0000 0000000   0.0000 204.0000  3.95927803    16
CTC2_L_00644003-07
1 10026U 26293JI  26075.70050926  .00000000  00000+0  00000-0 0  9999
2 10026  70.0000  60.0000 0000000   0.0000 240.0000  3.95927803    17
CTC2_L_00644003-08
1 10027U 24179UE  26075.70050926  .00000000  00000+0  00000-0 0  9991
2 10027  70.0000  60.0000 0000000   0.0000 276.0000  3.95927803    17
CTC2_L_00644003-09
1 10028U 22559HY  26075.70050926  .00000000  00000+0  00000-0 0  9992
2 10028  70.0000  60.0000 0000000   0.0000 312.0000  3.95927803    19
CTC2_L_00644003-10
1 10029U 25978WL  26075.70050926  .00000000  00000+0  00000-0 0  9991
2 10029  70.0000  60.0000 0000000   0.0000 348.0000  3.95927803    19
CTC2_L_00644004-01
1 10030U 24886AU  26075.70050926  .00000000  00000+0  00000-0 0  9990
2 10030  70.0000  90.0000 0000000   0.0000  36.0000  3.95927803    18
CTC2_L_00644004-02
1 10031U 23945SE  26075.70050926  .00000000  00000+0  00000-0 0  9996
2 10031  70.0000  90.0000 0000000   0.0000  72.0000  3.95927803    19
CTC2_L_00644004-03
1 10032U 23808ZH  26075.70050926  .00000000  00000+0  00000-0 0  9995
2 10032  70.0000  90.0000 0000000   0.0000 108.0000  3.95927803    10
CTC2_L_00644004-04
1 10033U 26336IO  26075.70050926  .00000000  00000+0  00000-0 0  9995
2 10033  70.0000  90.0000 0000000   0.0000 144.0000  3.95927803    11
CTC2_L_00644004-05
1 10034U 23198ZR  26075.70050926  .00000000  00000+0  00000-0 0  9999
2 10034  70.0000  90.0000 0000000   0.0000 180.0000  3.95927803    12
CTC2_L_00644004-06
1 10035U 26088CY  26075.70050926  .00000000  00000+0  00000-0 0  9991
2 10035  70.0000  90.0000 0000000   0.0000 216.0000  3.95927803    13
CTC2_L_00644004-07
1 10036U 25633HC  26075.70050926  .00000000  00000+0  00000-0 0  9997
2 10036  70.0000  90.0000 0000000   0.0000 252.0000  3.95927803    14
CTC2_L_00644004-08
1 10037U 23094A   26075.70050926  .00000000  00000+0  00000-0 0  9997
2 10037  70.0000  90.0000 0000000   0.0000 288.0000  3.95927803    14
CTC2_L_00644004-09
1 10038U 23048TH  26075.70050926  .00000000  00000+0  00000-0 0  9997
2 10038  70.0000  90.0000 0000000   0.0000 324.0000  3.95927803    16
CTC2_L_00644004-10
1 10039U 23321PM  26075.70050926  .00000000  00000+0  00000-0 0  9992
2 10039  70.0000  90.0000 0000000   0.0000   0.0000  3.95927803    18
CTC2_L_00644005-01
1 10040U 24191EX  26075.70050926  .00000000  00000+0  00000-0 0  9990
2 10040  70.0000 120.0000 0000000   0.0000  48.0000  3.95927803    16
CTC2_L_00644005-02
1 10041U 24119FY  26075.70050926  .00000000  00000+0  00000-0 0  9991
2 10041  70.0000 120.0000 0000000   0.0000  84.0000  3.95927803    17
CTC2_L_00644005-03
1 10042U 25325BM  26075.70050926  .00000000  00000+0  00000-0 0  9992
2 10042  70.0000 120.0000 0000000   0.0000 120.0000  3.95927803    19
CTC2_L_00644005-04
1 10043U 24931DB  26075.70050926  .00000000  00000+0  00000-0 0  9995
2 10043  70.0000 120.0000 0000000   0.0000 156.0000  3.95927803    19
CTC2_L_00644005-05
1 10044U 23050MN  26075.70050926  .00000000  00000+0  00000-0 0  9997
2 10044  70.0000 120.0000 0000000   0.0000 192.0000  3.95927803    10
CTC2_L_00644005-06
1 10045U 24448GK  26075.70050926  .00000000  00000+0  00000-0 0  9990
2 10045  70.0000 120.0000 0000000   0.0000 228.0000  3.95927803    11
CTC2_L_00644005-07
1 10046U 22607QH  26075.70050926  .00000000  00000+0  00000-0 0  9996
2 10046  70.0000 120.0000 0000000   0.0000 264.0000  3.95927803    12
CTC2_L_00644005-08
1 10047U 24598OK  26075.70050926  .00000000  00000+0  00000-0 0  9998
2 10047  70.0000 120.0000 0000000   0.0000 300.0000  3.95927803    14
CTC2_L_00644005-09
1 10048U 26976JG  26075.70050926  .00000000  00000+0  00000-0 0  9991
2 10048  70.0000 120.0000 0000000   0.0000 336.0000  3.95927803    14
CTC2_L_00644005-10
1 10049U 25211IL  26075.70050926  .00000000  00000+0  00000-0 0  9993
2 10049  70.0000 120.0000 0000000   0.0000  12.0000  3.95927803    16
CTC2_L_00644006-01
1 10050U 22785CO  26075.70050926  .00000000  00000+0  00000-0 0  9998
2 10050  70.0000 150.0000 0000000   0.0000  60.0000  3.95927803    14
CTC2_L_00644006-02
1 10051U 24294TI  26075.70050926  .00000000  00000+0  00000-0 0  9996
2 10051  70.0000 150.0000 0000000   0.0000  96.0000  3.95927803    14
CTC2_L_00644006-03
1 10052U 23498PD  26075.70050926  .00000000  00000+0  00000-0 0  9992
2 10052  70.0000 150.0000 0000000   0.0000 132.0000  3.95927803    16
CTC2_L_00644006-04
1 10053U 26374FG  26075.70050926  .00000000  00000+0  00000-0 0  9999
2 10053  70.0000 150.0000 0000000   0.0000 168.0000  3.95927803    16
CTC2_L_00644006-05
1 10054U 23800QT  26075.70050926  .00000000  00000+0  00000-0 0  9991
2 10054  70.0000 150.0000 0000000   0.0000 204.0000  3.95927803    18
CTC2_L_00644006-06
1 10055U 24627FB  26075.70050926  .00000000  00000+0  00000-0 0  9990
2 10055  70.0000 150.0000 0000000   0.0000 240.0000  3.95927803    19
CTC2_L_00644006-07
1 10056U 23900CW  26075.70050926  .00000000  00000+0  00000-0 0  9994
2 10056  70.0000 150.0000 0000000   0.0000 276.0000  3.95927803    19
CTC2_L_00644006-08
1 10057U 25710OG  26075.70050926  .00000000  00000+0  00000-0 0  9996
2 10057  70.0000 150.0000 0000000   0.0000 312.0000  3.95927803    11
CTC2_L_00644006-09
1 10058U 23762RC  26075.70050926  .00000000  00000+0  00000-0 0  9992
2 10058  70.0000 150.0000 0000000   0.0000 348.0000  3.95927803    11
CTC2_L_00644006-10
1 10059U 25240TU  26075.70050926  .00000000  00000+0  00000-0 0  9996
2 10059  70.0000 150.0000 0000000   0.0000  24.0000  3.95927803    13
CTC2_L_00644007-01
1 10060U 24751DS  26075.70050926  .00000000  00000+0  00000-0 0  9994
2 10060  70.0000 180.0000 0000000   0.0000  72.0000  3.95927803    11
CTC2_L_00644007-02
1 10061U 26257SR  26075.70050926  .00000000  00000+0  00000-0 0  9998
2 10061  70.0000 180.0000 0000000   0.0000 108.0000  3.95927803    12
